STARLINK-4750           
1 53841U 22114Z   24317.35496961  .00000855  00000+0  71787-4 0  9992
2 53841  53.2165 299.5285 0001789  95.1879 264.9317 15.08837516120154
STARLINK-4754           
1 53842U 22114AA  24317.34023135 -.00000028  00000+0  16344-4 0  9992
2 53842  53.2167 299.4410 0001968  84.5973 275.5243 15.08832157120154
STARLINK-4769           
1 53843U 22114AB  24317.35128372  .00000716  00000+0  63104-4 0  9992
2 53843  53.2157 299.5097 0001691  84.2079 275.9106 15.08841255120154
STARLINK-4745           
1 53844U 22114AC  24317.00164370  .00008464  00000+0  54889-3 0  9990
2 53844  53.2172 300.8861 0001854  90.2498 269.8707 15.08863104120101
STARLINK-4753           
1 53845U 22114AD  24316.68152386  .00004855  00000+0  32291-3 0  9991
2 53845  53.2161 302.4575 0001667  88.9588 271.1595 15.08842615120055
STARLINK-4746           
1 53846U 22114AE  24317.65669113  .00000190  00000+0  30046-4 0  9996
2 53846  53.2176 297.8634 0001684  89.6178 270.5007 15.08837117119664
STARLINK-4777           
1 53847U 22114AF  24317.33654554  .00001203  00000+0  93681-4 0  9995
2 53847  53.2181 299.4214 0001676  94.3510 265.7673 15.08832880120150
STARLINK-4780           
1 53848U 22114AG  24317.25187997 -.00000201  00000+0  54790-5 0  9996
2 53848  53.2166 299.5996 0001933  92.9440 267.1774 15.08833136119605
STARLINK-4770           
1 53849U 22114AH  24317.66037847  .00003086  00000+0  21193-3 0  9992
2 53849  53.2183 297.8831 0003040  88.7790 271.3550 15.08837874119664
STARLINK-4767           
1 53850U 22114AJ  24317.24082372  .00000198  00000+0  30569-4 0  9990
2 53850  53.2169 299.5326 0001837  94.2252 265.8950 15.08844386119607
STARLINK-4755           
1 53851U 22114AK  24317.65300888  .00000464  00000+0  47270-4 0  9994
2 53851  53.2176 297.8381 0001755  92.2364 267.8829 15.08835725119669
STARLINK-4797           
1 53852U 22114AL  24317.66636570  .00000420  00000+0  44483-4 0  9991
2 53852  53.2179 292.9383 0001452  92.2451 267.8708 15.08838968119738
STARLINK-4794           
1 53853U 22114AM  24317.24819710  .00003467  00000+0  23583-3 0  9996
2 53853  53.2170 299.5762 0001171  74.6619 285.4502 15.08833703119608
STARLINK-4800           
1 53854U 22114AN  24317.29702075  .00006950  00000+0  45427-3 0  9998
2 53854  53.2166 289.8961 0001283  88.9359 271.1780 15.08844565120284
STARLINK-4703           
1 53855U 22114AP  24317.25283686 -.00001451  00000+0 -73080-4 0  9997
2 53855  53.2172 299.6047 0001778  99.7803 260.3390 15.08833696120144
STARLINK-4795           
1 53856U 22114AQ  24317.34852139  .00000365  00000+0  41013-4 0  9995
2 53856  53.2176 289.5061 0001235  88.0639 272.0495 15.08833358120296
STARLINK-4809           
1 53857U 22114AR  24317.23714076  .00006609  00000+0  43301-3 0  9999
2 53857  53.2182 299.5074 0001491  94.7509 265.3653 15.08833141119607
STARLINK-4798           
1 53858U 22114AS  24317.22709388  .00001576  00000+0  11711-3 0  9997
2 53858  53.2161 290.1696 0001180  87.7150 272.3977 15.08838637120278
STARLINK-4790           
1 53859U 22114AT  24317.24313101 -.00000116  00000+0  10788-4 0  9998
2 53859  53.2172 294.5603 0001449  98.3964 261.7193 15.08833044120219
STARLINK-4799           
1 53860U 22114AU  24317.61718196 -.00001514  00000+0 -77051-4 0  9994
2 53860  53.2182 288.3406 0002000 100.2781 259.8437 15.08820425119797
STARLINK-4781           
1 53861U 22114AV  24317.22341349 -.00000359  00000+0 -44712-5 0  9999
2 53861  53.2175 290.1530 0001099  93.0914 267.0204 15.08830148119733
STARLINK-4792           
1 53862U 22114AW  24317.58334491  .01177604  00000+0  46699-1 0  9998
2 53862  53.2135 287.9798 0001329  99.6048 342.9643 15.22076763  5607
STARLINK-4788           
1 53863U 22114AX  24317.34483489  .00000508  00000+0  49997-4 0  9999
2 53863  53.2154 289.4863 0001683  93.5775 266.5410 15.08840397120294
STARLINK-4779           
1 53864U 22114AY  24317.23438165  .00007366  00000+0  48037-3 0  9991
2 53864  53.2167 289.5094 0000973  91.8639 268.2464 15.08839992120283
STARLINK-4785           
1 53865U 22114AZ  24317.91667824  .01215365  00000+0  50804-1 0  9997
2 53865  53.2139 286.4671 0001373 103.7030 355.7115 15.20171672119846
STARLINK-4762           
1 53866U 22114BA  24317.29149727  .00000298  00000+0  36826-4 0  9993
2 53866  53.2151 269.8975 0001247  85.9832 274.1303 15.08836835120563
STARLINK-4793           
1 53867U 22114BB  24317.61074329  .00001315  00000+0  10078-3 0  9996
2 53867  53.2185 278.3165 0006024  80.9399 279.2274 15.08833096119936
STARLINK-4789           
1 53868U 22114BC  24317.59322080  .00002019  00000+0  14493-3 0  9991
2 53868  53.2167 268.2423 0001314  92.9774 267.1368 15.08837948120616
STARLINK-4810           
1 53869U 22114BD  24317.30891080  .00000962  00000+0  78535-4 0  9995
2 53869  53.2184 279.2770 0001758 106.2555 253.8631 15.08833031120435
STARLINK-4732           
1 53870U 22114BE  24317.59688673  .00000211  00000+0  31347-4 0  9997
2 53870  53.2167 268.2490 0001576 261.1012  98.9802 15.08847149120615
STARLINK-4740           
1 53871U 22114BF  24317.56743165  .00007456  00000+0  48601-3 0  9991
2 53871  53.2160 268.0691 0001256  92.2688 267.8448 15.08841986120613
STARLINK-5028           
1 53886U 22119A   24317.47734144  .00000332  00000+0  38930-4 0  9990
2 53886  53.2166 329.0864 0001511  90.9154 269.2011 15.08837256118885
STARLINK-5029           
1 53887U 22119B   24317.33380430  .00002996  00000+0  20624-3 0  9999
2 53887  53.2175 329.6107 0001870  88.9264 271.1942 15.08843070118863
STARLINK-5034           
1 53888U 22119C   24317.34117620 -.00000458  00000+0 -10693-4 0  9999
2 53888  53.2175 329.6603 0001989  95.8712 264.2507 15.08829614118869
STARLINK-5031           
1 53889U 22119D   24317.33747967 -.00008613  00000+0 -52403-3 0  9997
2 53889  53.2192 329.6353 0001576  80.9484 279.1686 15.08815837118869
STARLINK-5050           
1 53890U 22119E   24317.62954403  .00002638  00000+0  18375-3 0  9995
2 53890  53.2189 292.9515 0001556  92.5237 267.5934 15.08841226118983
STARLINK-5041           
1 53891U 22119F   24317.33012043  .00001762  00000+0  12880-3 0  9991
2 53891  53.2178 329.5881 0001596  93.6107 266.5067 15.08841128118445
STARLINK-5046           
1 53892U 22119G   24317.31169731  .00004424  00000+0  29586-3 0  9996
2 53892  53.2165 329.4715 0001410  96.2409 263.8744 15.08841476118860
STARLINK-5052           
1 53893U 22119H   24317.32371124  .00001041  00000+0  83530-4 0  9991
2 53893  53.2166 329.5483 0001606  86.3195 273.7981 15.08835746118860
STARLINK-5043           
1 53894U 22119J   24317.72387784  .00002921  00000+0  20151-3 0  9992
2 53894  53.2167 327.7841 0001381  87.3375 272.7775 15.08841158118506
STARLINK-5032           
1 53895U 22119K   24317.44785707 -.00002554  00000+0 -14249-3 0  9994
2 53895  53.2173 328.9007 0001544  89.3140 270.8029 15.08828054118886
STARLINK-5037           
1 53896U 22119L   24317.77168854  .00002232  00000+0  15825-3 0  9991
2 53896  53.2161 327.3696 0001345  89.1539 270.9607 15.08848657118514
STARLINK-5035           
1 53897U 22119M   24317.32278038  .00026598  00000+0  16833-2 0  9999
2 53897  53.2168 329.5434 0001611  66.9429 293.1733 15.08832788118866
STARLINK-5044           
1 53898U 22119N   24317.29693843  .00004005  00000+0  26942-3 0  9993
2 53898  53.2187 329.3822 0001546  92.3924 267.7245 15.08864775118863
STARLINK-5042           
1 53899U 22119P   24317.30064572  .00000570  00000+0  53885-4 0  9997
2 53899  53.2160 329.4046 0001413  95.4466 264.6687 15.08831091118863
STARLINK-5045           
1 53900U 22119Q   24317.42206675 -.00001419  00000+0 -71066-4 0  9991
2 53900  53.2159 328.7429 0001634  94.7915 265.3263 15.08837763118889
STARLINK-5024           
1 53901U 22119R   24317.76795268  .00011539  00000+0  74039-3 0  9994
2 53901  53.2154 327.3434 0001411 122.3323 237.7806 15.08915437118511
STARLINK-5021           
1 53902U 22119S   24317.62172470  .00004582  00000+0  30582-3 0  9999
2 53902  53.2182 277.9622 0001517  86.5033 273.6133 15.08837116119192
STARLINK-5022           
1 53903U 22119T   24317.43776655  .00000592  00000+0  55306-4 0  9993
2 53903  53.2152 328.8360 0001505  94.8841 265.2323 15.08840521118888
STARLINK-4787           
1 53904U 22119U   24317.74957772  .00001720  00000+0  12612-3 0  9995
2 53904  53.2166 327.2323 0001232  91.4963 268.6170 15.08846563118510
STARLINK-5003           
1 53905U 22119V   24317.73953550  .00001369  00000+0  10406-3 0  9993
2 53905  53.2172 317.8971 0001375  95.5120 264.6029 15.08846461118640
STARLINK-5054           
1 53906U 22119W   24317.02923763  .00001932  00000+0  13948-3 0  9999
2 53906  53.2159 320.5801 0001691  96.5551 263.5634 15.08838719118961
STARLINK-5063           
1 53907U 22119X   24317.74598280  .00000552  00000+0  52782-4 0  9998
2 53907  53.2171 327.9042 0001397  89.0819 271.0333 15.08841417118500
STARLINK-5057           
1 53908U 22119Y   24317.40096883  .00002060  00000+0  14749-3 0  9990
2 53908  53.2161 319.3370 0001388  90.5018 269.6133 15.08839108119019
STARLINK-4796           
1 53909U 22119Z   24317.41202642  .00006014  00000+0  39567-3 0  9992
2 53909  53.2161 319.4061 0001811  92.3707 267.7493 15.08838257119016
STARLINK-5056           
1 53910U 22119AA  24317.27848939  .00026216  00000+0  93407-3 0  9992
2 53910  53.2099 313.6955 0009283  46.4095 313.7675 15.28741478119088
STARLINK-5048           
1 53911U 22119AB  24317.27217483  .00010897  00000+0  70162-3 0  9998
2 53911  53.2162 319.9567 0001078  88.4575 271.6541 15.08843631118996
STARLINK-5059           
1 53912U 22119AC  24317.41931374  .00005267  00000+0  34878-3 0  9996
2 53912  53.2156 318.7520 0003239  95.1799 264.9563 15.08839451119029
STARLINK-5053           
1 53913U 22119AD  24317.31999042 -.00000508  00000+0 -13835-4 0  9998
2 53913  53.2179 319.5472 0001895  96.6088 263.5120 15.08833283119002
